{
"type": "FeatureCollection",
"name": "lugares_v1",
"crs": { "type": "name", "properties": { "name": "urn:ogc:def:crs:OGC:1.3:CRS84" } },
"features": [
{"type":"Feature","properties":{"id":"PL_ZOCALO_OAXACA","nombre":"Zócalo","nombreEN":null,"categoria":"zonaUrbana","aliases":"Zócalo de Oaxaca|Zócalo de Oaxaca de Juárez|Zócalo de la Ciudad de Oaxaca|Zócalo de la Ciudad|Zócalo|Plaza de la Constitución|Plaza de la Constitución de Oaxaca|Plaza Principal de Oaxaca|Plaza Principal|Centro de Oaxaca","keywords":"centro|plaza|oaxaca|zócalo|centro histórico|constitución|oaxaca centro|plaza principal|ciudad de oaxaca|oaxaca de juárez","municipio":"Oaxaca de Juárez","localidad":"Oaxaca de Juárez","fuente":"YUU BUS","activo":true,"notas":null},"geometry":{"type":"Point","coordinates":[-96.725355771346187,17.060595091464148]}},
{"type":"Feature","properties":{"id":"PL_ALAMEDA_DE_LEON_OAXACA","nombre":"Alameda de León","nombreEN":null,"categoria":"zonaUrbana","aliases":"Alameda de León|Alameda León|La Alameda|Alameda de Oaxaca|Alameda de la Ciudad|Alameda del Centro|Alameda del Centro Histórico|Alameda de Oaxaca de Juárez|La Alameda de Oaxaca|Alameda","keywords":"alameda|león|centro|oaxaca|parque|plaza|centro histórico|oaxaca centro|zócalo|ciudad de oaxaca","municipio":"Oaxaca de Juárez","localidad":"Oaxaca de Juárez","fuente":"YUU BUS","activo":true,"notas":null},"geometry":{"type":"Point","coordinates":[-96.725870165237367,17.061707962164075]}},
{"type":"Feature","properties":{"id":"PL_CATEDRAL_DE_OAXACA","nombre":"Catedral de Oaxaca","nombreEN":null,"categoria":"cultura","aliases":"Catedral de Oaxaca|Catedral Metropolitana de Oaxaca|Catedral Metropolitana|Catedral de Nuestra Señora de la Asunción|Catedral de la Asunción|La Catedral|Catedral del Centro|Catedral del Zócalo|Catedral de Oaxaca de Juárez|Catedral del Centro de Oaxaca","keywords":"catedral|iglesia|templo|oaxaca|centro|centro histórico|zócalo|asunción|catedral metropolitana|oaxaca centro","municipio":"Oaxaca de Juárez","localidad":"Oaxaca de Juárez","fuente":"YUUBUS","activo":true,"notas":null},"geometry":{"type":"Point","coordinates":[-96.725083080608712,17.061498620533662]}},
{"type":"Feature","properties":{"id":"PL_PLAZA_DE_LA_DANZA_OAXACA","nombre":"Plaza de la Danza","nombreEN":null,"categoria":"zonaUrbana","aliases":"Plaza de la Danza|Plaza de la Danza Oaxaca|Plaza de la Danza de Oaxaca|Plaza de la Danza Oaxaca de Juárez|La Plaza de la Danza|Plaza de la Danza del Centro|Plaza de la Danza Centro Histórico|Plaza de la Danza de Oaxaca de Juárez|Plaza de la Danza Centro|Plaza de la Danza de la Ciudad de Oaxaca","keywords":"plaza de la danza|danza|plaza|oaxaca|centro|centro histórico|oaxaca centro|fortín|soledad|ciudad de oaxaca","municipio":"Oaxaca de Juárez","localidad":"Oaxaca de Juárez","fuente":"YUUBUS","activo":true,"notas":null},"geometry":{"type":"Point","coordinates":[-96.729602103247046,17.063687808899477]}},
{"type":"Feature","properties":{"id":"PL_BASILICA_DE_LA_SOLEDAD_OAXACA","nombre":"Basílica de la Soledad","nombreEN":null,"categoria":"cultura","aliases":"Basílica de la Soledad|Basílica de Nuestra Señora de la Soledad|La Soledad|Templo de la Soledad|Iglesia de la Soledad|Santuario de la Soledad|Basílica de Oaxaca|Basílica de la Virgen de la Soledad|Templo de Nuestra Señora de la Soledad|Basílica de la Soledad Oaxaca","keywords":"soledad|basílica|virgen|iglesia|templo|oaxaca|centro|centro histórico|plaza de la danza|jardín sócrates","municipio":"Oaxaca de Juárez","localidad":"Oaxaca de Juárez","fuente":"YUUBUS","activo":true,"notas":null},"geometry":{"type":"Point","coordinates":[-96.730159879755547,17.063496243599268]}},
{"type":"Feature","properties":{"id":"PL_JARDIN_MORELOS_OAXACA","nombre":"Jardín Morelos","nombreEN":null,"categoria":"zonaUrbana","aliases":"Jardín Morelos|Jardín Morelos Oaxaca|Parque Morelos|Morelos|Jardín de Morelos|Jardín Morelos Centro|Jardín Morelos Oaxaca de Juárez|Parque Morelos Oaxaca|Jardín Morelos del Centro|Jardín Morelos Madero","keywords":"jardín morelos|morelos|jardín|parque|oaxaca|centro|madero|calzada madero|soledad|centro histórico","municipio":"Oaxaca de Juárez","localidad":"Oaxaca de Juárez","fuente":"YUUBUS","activo":true,"notas":null},"geometry":{"type":"Point","coordinates":[-96.731994344716838,17.063143723435125]}},
{"type":"Feature","properties":{"id":"PL_PARQUE_HUZARES_OAXACA","nombre":"Parque Húzares","nombreEN":null,"categoria":"zonaUrbana","aliases":"Parque Húzares|Parque Huzares|Húzares|Huzares|Parque de Húzares|Parque Húzares Oaxaca|Parque Huzares Oaxaca|Parque Húzares Centro|Parque de la calle Húzares|Parque Húzares Oaxaca de Juárez","keywords":"húzares|huzares|parque|oaxaca|centro|centro histórico|calle húzares|morelos|soledad|oaxaca centro","municipio":"Oaxaca de Juárez","localidad":"Oaxaca de Juárez","fuente":"YUUBUS","activo":true,"notas":null},"geometry":{"type":"Point","coordinates":[-96.732125525488271,17.06257692491279]}},
{"type":"Feature","properties":{"id":"PL_NUESTRA_SENORA_DE_LA_MERCED_OAXACA","nombre":"Nuestra Señora de la Merced","nombreEN":null,"categoria":"cultura","aliases":"Nuestra Señora de la Merced|La Merced|Templo de la Merced|Iglesia de la Merced|Parroquia de la Merced|Templo de Nuestra Señora de la Merced|Parroquia de Nuestra Señora de la Merced|La Merced Oaxaca|Iglesia Nuestra Señora de la Merced|Templo La Merced Oaxaca","keywords":"merced|la merced|iglesia|templo|parroquia|oaxaca|centro|centro histórico|independencia|virgen de la merced","municipio":"Oaxaca de Juárez","localidad":"Oaxaca de Juárez","fuente":"YUUBUS","activo":true,"notas":null},"geometry":{"type":"Point","coordinates":[-96.719145601321785,17.060271696117081]}},
{"type":"Feature","properties":{"id":"PL_TEMPLO_SANTO_DOMINGO_OAXACA","nombre":"Templo de Santo Domingo de Guzmán","nombreEN":null,"categoria":"cultura","aliases":"Santo Domingo|Templo de Santo Domingo|Templo de Santo Domingo de Guzmán|Iglesia de Santo Domingo|Santo Domingo de Guzmán|Santo Domingo Oaxaca|Templo Santo Domingo Oaxaca|Iglesia Santo Domingo Oaxaca|Santo Domingo de Oaxaca|Templo de Santo Domingo Oaxaca","keywords":"santo domingo|domingo|templo|iglesia|oaxaca|centro|centro histórico|andador turístico|macedonio alcalá|santo domingo oaxaca","municipio":"Oaxaca de Juárez","localidad":"Oaxaca de Juárez","fuente":"YUUBUS","activo":true,"notas":null},"geometry":{"type":"Point","coordinates":[-96.723004588424899,17.065627643351206]}},
{"type":"Feature","properties":{"id":"PL_JARDIN_ETNOBOTANICO_OAXACA","nombre":"Jardín Etnobotánico de Oaxaca","nombreEN":null,"categoria":"zonaUrbana","aliases":"Jardín Etnobotánico de Oaxaca|Jardín Etnobotánico|Jardín Etnobiológico de Oaxaca|Jardín Etnobiológico|Jardín Botánico de Oaxaca|Jardín Botánico|Jardín de Santo Domingo|Jardín Etnobotánico Santo Domingo|Jardín de Oaxaca|Etnobotánico de Oaxaca","keywords":"jardín etnobotánico|etnobotánico|jardín|plantas|oaxaca|santo domingo|centro|centro histórico|jardín botánico|reforma","municipio":"Oaxaca de Juárez","localidad":"Oaxaca de Juárez","fuente":"YUUBUS","activo":true,"notas":null},"geometry":{"type":"Point","coordinates":[-96.722252623057855,17.066496587852647]}},
{"type":"Feature","properties":{"id":"PL_FUENTE_LLANO_SUR_OAXACA","nombre":"Fuente Llano Sur","nombreEN":null,"categoria":"cultura","aliases":"Fuente Llano Sur|Fuente del Llano Sur|Fuente Sur del Llano|Fuente del Llano|Fuente El Llano|Fuente del Parque El Llano|Fuente Parque El Llano|Fuente Llano Oaxaca|Fuente Sur El Llano|Fuente del Paseo Juárez","keywords":"fuente llano sur|fuente|llano|el llano|parque el llano|paseo juárez|oaxaca|centro|llano sur|paseo juárez el llano","municipio":"Oaxaca de Juárez","localidad":"Oaxaca de Juárez","fuente":"YUUBUS","activo":true,"notas":null},"geometry":{"type":"Point","coordinates":[-96.719752957964275,17.067525491905823]}},
{"type":"Feature","properties":{"id":"PL_FUENTE_LLANO_NORTE_OAXACA","nombre":"Fuente Llano Norte","nombreEN":null,"categoria":"cultura","aliases":"Fuente Llano Norte|Fuente del Llano Norte|Fuente Norte del Llano|Fuente del Llano|Fuente El Llano|Fuente del Parque El Llano|Fuente Parque El Llano|Fuente Llano Oaxaca|Fuente Norte El Llano|Fuente del Paseo Juárez","keywords":"fuente llano norte|fuente|llano|el llano|parque el llano|paseo juárez|oaxaca|centro|llano norte|paseo juárez el llano","municipio":"Oaxaca de Juárez","localidad":"Oaxaca de Juárez","fuente":"YUUBUS","activo":true,"notas":null},"geometry":{"type":"Point","coordinates":[-96.719484398904626,17.068943434836907]}},
{"type":"Feature","properties":{"id":"PL_MONUMENTO_CASSIANO_CONZATTI_OAXACA","nombre":"Monumento a Cassiano Conzatti","nombreEN":null,"categoria":"cultura","aliases":"Monumento a Cassiano Conzatti|Cassiano Conzatti|Monumento Conzatti|Conzatti|Estatua de Cassiano Conzatti|Monumento de Conzatti|Monumento del Jardín Conzatti|Estatua de Conzatti|Monumento Cassiano Conzatti Oaxaca|Monumento Conzatti Oaxaca","keywords":"cassiano conzatti|conzatti|monumento|estatua|jardín","municipio":"Oaxaca de Juárez","localidad":"Oaxaca de Juárez","fuente":"YUUBUS","activo":true,"notas":null},"geometry":{"type":"Point","coordinates":[-96.721643200576409,17.06979952747659]}},
{"type":"Feature","properties":{"id":"PL_TEATRO_MACEDONIO_ALCALA_OAXACA","nombre":"Teatro Macedonio Alcalá","nombreEN":null,"categoria":"cultura","aliases":"Teatro Macedonio Alcalá|Macedonio Alcalá|Teatro Alcalá|Teatro Macedonio|El Macedonio|El Alcalá|Teatro Macedonio Alcalá Oaxaca|Teatro Alcalá Oaxaca|Macedonio Alcalá Oaxaca|Teatro del Centro","keywords":"teatro macedonio alcalá|macedonio alcalá|teatro|alcalá|oaxaca|centro|centro histórico|teatro alcalá|independencia|oaxaca centro","municipio":"Oaxaca de Juárez","localidad":"Oaxaca de Juárez","fuente":"YUUBUS","activo":true,"notas":null},"geometry":{"type":"Point","coordinates":[-96.723407427014351,17.06145764089457]}},
{"type":"Feature","properties":{"id":"PL_MERCADO_BENITO_JUAREZ_OAXACA","nombre":"Mercado Benito Juárez","nombreEN":null,"categoria":"mercado","aliases":"Mercado Benito Juárez|Benito Juárez|Mercado Benito Juárez Oaxaca|Mercado Juárez|Mercado de Benito Juárez|Mercado Benito Juárez Maza|Benito Juárez Maza|Mercado del Centro|Mercado Benito Juárez Centro|Mercado Juárez Oaxaca","keywords":"mercado benito juárez|benito juárez|mercado|oaxaca|centro|centro histórico|zócalo|las casas|20 de noviembre|artesanías","municipio":"Oaxaca de Juárez","localidad":"Oaxaca de Juárez","fuente":"YUUBUS","activo":true,"notas":null},"geometry":{"type":"Point","coordinates":[-96.726681265243343,17.058935153985665]}},
{"type":"Feature","properties":{"id":"PL_MERCADO_20_DE_NOVIEMBRE_OAXACA","nombre":"Mercado 20 de Noviembre","nombreEN":null,"categoria":"mercado","aliases":"Mercado 20 de Noviembre|20 de Noviembre|Mercado Veinte de Noviembre|Mercado 20 de Noviembre Oaxaca|Mercado del 20|Mercado 20|Mercado Veinte|Mercado 20 de Noviembre Centro|Mercado de comida 20 de Noviembre|Mercado del Pasillo del Humo","keywords":"mercado 20 de noviembre|20 de noviembre|mercado|oaxaca|centro|centro histórico|pasillo del humo|comida|gastronomía|tlayudas","municipio":"Oaxaca de Juárez","localidad":"Oaxaca de Juárez","fuente":"YUUBUS","activo":true,"notas":null},"geometry":{"type":"Point","coordinates":[-96.727007667792762,17.057990138370982]}},
{"type":"Feature","properties":{"id":"PL_PANTEON_GENERAL_OAXACA","nombre":"Panteón General","nombreEN":null,"categoria":"cultura","aliases":"Panteón General|Panteón General de Oaxaca|Panteón General San Miguel|Panteón San Miguel|San Miguel|Panteón de San Miguel|Cementerio General|Cementerio General de Oaxaca|Panteón Municipal|Panteón de Oaxaca","keywords":"panteón general|panteón san miguel|san miguel|panteón|cementerio|camposanto|oaxaca|centro|día de muertos|oaxaca de juárez","municipio":"Oaxaca de Juárez","localidad":"Oaxaca de Juárez","fuente":"YUUBUS","activo":true,"notas":null},"geometry":{"type":"Point","coordinates":[-96.712636659343417,17.064371122698841]}},
{"type":"Feature","properties":{"id":"PL_ESTADIO_EDUARDO_VASCONCELOS_OAXACA","nombre":"Estadio Eduardo Vasconcelos","nombreEN":null,"categoria":"cultura","aliases":"Estadio Eduardo Vasconcelos|Eduardo Vasconcelos|Estadio Vasconcelos|El Vasconcelos|Vasconcelos|Estadio de Béisbol Eduardo Vasconcelos|Estadio de los Guerreros|Estadio Guerreros de Oaxaca|Casa de los Guerreros|Templo Bélico","keywords":"estadio eduardo vasconcelos|vasconcelos|estadio|beisbol|béisbol|guerreros|guerreros de oaxaca|templo bélico|oaxaca|estadio de beisbol","municipio":"Oaxaca de Juárez","localidad":"Oaxaca de Juárez","fuente":"YUUBUS","activo":true,"notas":null},"geometry":{"type":"Point","coordinates":[-96.712913481758761,17.069624260848755]}},
{"type":"Feature","properties":{"id":"PL_CENTRO_CULTURAL_CONVENCIONES_OAXACA","nombre":"Centro Cultural y de Convenciones de Oaxaca","nombreEN":null,"categoria":"institucion","aliases":"Centro Cultural y de Convenciones de Oaxaca|Centro de Convenciones de Oaxaca|Centro de Convenciones|CCCO|CCCO Oaxaca|Centro Cultural Oaxaca|Centro de Convenciones Santa Lucía|Centro de Convenciones de Santa Lucía|Centro de Convenciones Ixcotel|Centro de Convenciones de las Canteras","keywords":"centro de convenciones|ccco|convenciones|centro cultural|oaxaca|santa lucía|ixcotel|las canteras|parque las canteras|eventos","municipio":"Santa Lucía del Camino","localidad":"Santa Lucía del Camino","fuente":"YUUBUS","activo":true,"notas":null},"geometry":{"type":"Point","coordinates":[-96.705516745504482,17.064552812652256]}},
{"type":"Feature","properties":{"id":"PL_CUARTEL_GENERAL_28_ZONA_MILITAR_OAXACA","nombre":"Cuartel General de la 28/a Zona Militar","nombreEN":null,"categoria":"institucion","aliases":"28 Zona Militar|28/a Zona Militar|28a Zona Militar|Cuartel 28 Zona Militar|Cuartel General 28 Zona Militar|Cuartel General de la 28 Zona Militar|Zona Militar de Ixcotel|Cuartel de Ixcotel|Zona Militar Oaxaca|Cuartel Militar de Santa María Ixcote","keywords":"28 zona militar|zona militar|cuartel|cuartel militar|sedena|ejército|ixcotel|santa maría ixcotel|santa lucía|oaxaca","municipio":"Santa Lucía del Camino","localidad":"Santa Lucía del Camino","fuente":"YUUBUS","activo":true,"notas":null},"geometry":{"type":"Point","coordinates":[-96.698901929281561,17.07513002285436]}},
{"type":"Feature","properties":{"id":"PL_CIUDAD_DE_LAS_CANTERAS_OAXACA","nombre":"Ciudad de las Canteras","nombreEN":null,"categoria":"zonaUrbana","aliases":"Las Canteras|Ciudad de las Canteras|Parque Las Canteras|Parque de las Canteras|Parque Ciudad de las Canteras|Canteras|Las Canteras Oaxaca|Las Canteras Ixcotel|Canteras de Ixcotel|Ciudad de las Canteras Oaxaca","keywords":"las canteras|canteras|ciudad de las canteras|parque|ixcotel|santa maría ixcotel|santa lucía|oaxaca|parque las canteras|lago","municipio":"Santa Lucía del Camino","localidad":"Santa María Ixcotel","fuente":"YUUBUS","activo":true,"notas":null},"geometry":{"type":"Point","coordinates":[-96.70584753796156,17.06917375080349]}},
{"type":"Feature","properties":{"id":"PL_AUDITORIO_GUELAGUETZA_OAXACA","nombre":"Auditorio Guelaguetza","nombreEN":null,"categoria":"cultura","aliases":"Auditorio Guelaguetza|Guelaguetza|Auditorio de la Guelaguetza|Auditorio del Cerro del Fortín|Auditorio del Fortín|Auditorio Guelaguetza Oaxaca|Auditorio del Cerro|Auditorio del Fortin Oaxaca|Rotonda de la Azucena|Auditorio de Oaxaca","keywords":"auditorio guelaguetza|guelaguetza|auditorio|cerro del fortín|fortín|lunes del cerro|rotonda de la azucena|oaxaca|eventos|fiesta de la guelaguetza","municipio":"Oaxaca de Juárez","localidad":"Oaxaca de Juárez","fuente":"YUUBUS","activo":true,"notas":null},"geometry":{"type":"Point","coordinates":[-96.7309660733942,17.068790631268111]}},
{"type":"Feature","properties":{"id":"PL_CENTRAL_DE_ABASTOS_OAXACA","nombre":"Central de Abastos","nombreEN":null,"categoria":"mercado","aliases":"Central de Abastos|Central de Abastos de Oaxaca|Central de Abasto|Central de Abasto Oaxaca|Mercado de Abastos|Mercado de Abastos Oaxaca|Abastos|La Central|La Central de Abastos|Central Oaxaca","keywords":"central de abastos|central|abastos|mercado de abastos|mercado|oaxaca|comercio|mayoreo|juárez maza|central oaxaca\n categoria: mercado","municipio":"Oaxaca de Juárez","localidad":"Oaxaca de Juárez","fuente":"YUUBUS","activo":true,"notas":null},"geometry":{"type":"Point","coordinates":[-96.733571096272769,17.058288110111619]}},
{"type":"Feature","properties":{"id":"PL_CENTRAL_AUTOBUSES_ADO_OAXACA","nombre":"Central de Autobuses de Oaxaca ADO","nombreEN":null,"categoria":"institucion","aliases":"Central de Autobuses de Oaxaca|Central ADO|ADO Oaxaca|Terminal ADO|Terminal ADO Oaxaca|Central de Autobuses ADO|Terminal de Primera Clase|Central de Primera Clase|Terminal ADO Jalatlaco|ADO Jalatlaco","keywords":"ado|occ|central ado|terminal ado|autobuses|central de autobuses|terminal|jalatlaco|primera clase|oaxaca","municipio":"Oaxaca de Juárez","localidad":"Oaxaca de Juárez","fuente":"YUUBUS","activo":true,"notas":null},"geometry":{"type":"Point","coordinates":[-96.716997903534349,17.07032902917615]}},
{"type":"Feature","properties":{"id":"PL_CIUDAD_ADMINISTRATIVA_OAXACA","nombre":"Ciudad Administrativa","nombreEN":null,"categoria":"institucion","aliases":"Ciudad Administrativa|Ciudad Administrativa Oaxaca|Ciudad Administrativa de Oaxaca|Ciudad Administrativa Tlalixtac|Ciudad Administrativa de Tlalixtac|Ciudad Administrativa Benemérito de las Américas|Benemérito de las Américas|Complejo Ciudad Administrativa|Oficinas de Ciudad Administrativa|Oficinas de Gobierno Tlalixtac","keywords":"ciudad administrativa|administrativa|tlalixtac|tlalixtac de cabrera|gobierno|gobierno de oaxaca|oficinas de gobierno|benemérito de las américas|carretera internacional|oaxaca","municipio":"Tlalixtac de Cabrera","localidad":"Tlalixtac de Cabrera","fuente":"YUUBUS","activo":true,"notas":null},"geometry":{"type":"Point","coordinates":[-96.653428941197134,17.055154815958446]}},
{"type":"Feature","properties":{"id":"PL_CIUDAD_JUDICIAL_OAXACA","nombre":"Ciudad Judicial","nombreEN":null,"categoria":"institucion","aliases":"Ciudad Judicial|Ciudad Judicial Oaxaca|Ciudad Judicial de Oaxaca|Ciudad Judicial Reyes Mantecón|Ciudad Judicial de Reyes Mantecón|Complejo Ciudad Judicial|Complejo Judicial Oaxaca|Poder Judicial Reyes Mantecón|Oficinas de Ciudad Judicial|Oficinas de Gobierno Reyes Mantecón","keywords":"ciudad judicial|judicial|reyes mantecón|poder judicial|tribunal|oficinas de gobierno|gobierno de oaxaca|san bartolo coyotepec|puerto escondido|oaxaca","municipio":"San Bartolo Coyotepec","localidad":"Reyes Mantecón","fuente":"YUUBUS","activo":true,"notas":null},"geometry":{"type":"Point","coordinates":[-96.721967279057125,16.910187851330171]}},
{"type":"Feature","properties":{"id":"PL_BASE_AEREA_MILITAR_15_OAXACA","nombre":"Base Aérea Militar No. 15","nombreEN":null,"categoria":"institucion","aliases":"Base Aérea Militar No. 15|Base Aérea Militar 15|BAM 15|Base Aérea 15|Base Aérea de Oaxaca|Base Militar de Oaxaca|Base Militar La Raya|Base Aérea La Raya|Base Aérea de Xoxocotlán|Base Aérea San Juan Bautista La Raya","keywords":"base aérea|base militar|bam 15|fuerza aérea|militar|la raya|san juan bautista la raya|xoxocotlán|aeropuerto|oaxaca","municipio":"Santa Cruz Xoxocotlán","localidad":"San Juan Bautista la Raya","fuente":"YUUBUS","activo":true,"notas":null},"geometry":{"type":"Point","coordinates":[-96.723293547643962,16.992922425886334]}},
{"type":"Feature","properties":{"id":"PL_EL_TEQUIO_OAXACA","nombre":"Bosque El Tequio","nombreEN":null,"categoria":"zonaUrbana","aliases":"El Tequio|Bosque El Tequio|Parque El Tequio|Parque del Tequio|Parque Deportivo El Tequio|Bosque del Tequio|Tequio|El Tequio Oaxaca|El Tequio Xoxocotlán|Parque El Tequio Oaxaca","keywords":"el tequio|tequio|bosque|parque|deportivo|pista|atletismo|xoxocotlán|aeropuerto|oaxaca","municipio":"Santa Cruz Xoxocotlán","localidad":"Santa Cruz Xoxocotlán","fuente":"YUUBUS","activo":true,"notas":null},"geometry":{"type":"Point","coordinates":[-96.721657403219055,16.997379430684425]}},
{"type":"Feature","properties":{"id":"PL_AEROPUERTO_INTERNACIONAL_OAXACA","nombre":"Aeropuerto Internacional de Oaxaca","nombreEN":null,"categoria":"institucion","aliases":"Aeropuerto Internacional de Oaxaca|Aeropuerto de Oaxaca|Aeropuerto Internacional Xoxocotlán|Aeropuerto de Xoxocotlán|Aeropuerto Xoxocotlán|Aeropuerto Oaxaca|OAX|Aeropuerto OAX|Aeropuerto de Santa Cruz Xoxocotlán|Aeropuerto de San Juan Bautista la Raya","keywords":"aeropuerto|aeropuerto internacional|aeropuerto de oaxaca|xoxocotlán|oax|vuelos|avión|santa cruz xoxocotlán|san juan bautista la raya|oaxaca","municipio":"Santa Cruz Xoxocotlán","localidad":"San Juan Bautista la Raya","fuente":"YUUBUS","activo":true,"notas":null},"geometry":{"type":"Point","coordinates":[-96.724768556632938,16.99950121222361]}},
{"type":"Feature","properties":{"id":"PL_PARQUE_CENTRAL_XOXOCOTLAN","nombre":"Parque Central de Xoxocotlán","nombreEN":null,"categoria":"zonaUrbana","aliases":"Parque de Xoxocotlán|Parque Central de Xoxocotlán|Parque Central Xoxo|Parque de Xoxo|Parque Xoxo|Parque Central|Parque Municipal de Xoxocotlán|Parque Municipal de Xoxo|Parque de Santa Cruz Xoxocotlán|Parque Central Santa Cruz Xoxocotlán","keywords":"parque xoxocotlán|parque xoxo|parque central|xoxo|xoxocotlán|santa cruz xoxocotlán|centro|cabecera municipal|kiosco|parque","municipio":"Santa Cruz Xoxocotlán","localidad":"Santa Cruz Xoxocotlán","fuente":"YUUBUS","activo":true,"notas":null},"geometry":{"type":"Point","coordinates":[-96.733628939762283,17.026851076730949]}},
{"type":"Feature","properties":{"id":"PL_PARQUE_PRIMAVERA_OAXAQUENA","nombre":"Parque Primavera Oaxaqueña","nombreEN":null,"categoria":"zonaUrbana","aliases":"Parque Primavera Oaxaqueña|Parque Primavera|Primavera Oaxaqueña|Parque de la Primavera|Parque Primavera Oaxaca|Parque Primavera Oaxaqueña Oaxaca|Primavera Oaxaca|Parque de la Ex Fábrica de Triplay|Parque de Triplay|Parque Primavera San Juan Chapultepec","keywords":"parque primavera|primavera oaxaqueña|parque|oaxaca|san juan chapultepec|riberas del atoyac|río atoyac|monte albán|triplay|deporte","municipio":"Oaxaca de Juárez","localidad":"Oaxaca de Juárez","fuente":"YUUBUS","activo":true,"notas":null},"geometry":{"type":"Point","coordinates":[-96.731918425136243,17.051591901376511]}},
{"type":"Feature","properties":{"id":"PL_PLAZA_OAXACA","nombre":"Plaza Oaxaca","nombreEN":null,"categoria":"zonaUrbana","aliases":"Plaza Oaxaca|Plaza Oaxaca Candiani|Plaza Oaxaca Universidad|Plaza Oaxaca Oaxaca|Plaza Oaxaca Centro Comercial|Centro Comercial Plaza Oaxaca|Plaza de Candiani|Plaza Universidad Oaxaca|Plaza Oaxaca Soriana|Plaza Oaxaca Cinépolis","keywords":"plaza oaxaca|plaza|centro comercial|candiani|universidad|avenida universidad|soriana|cinépolis|compras|oaxaca","municipio":"Oaxaca de Juárez","localidad":"Oaxaca de Juárez","fuente":"YUUBUS","activo":true,"notas":null},"geometry":{"type":"Point","coordinates":[-96.715660272833162,17.042052277826585]}},
{"type":"Feature","properties":{"id":"PL_PLAZA_DEL_VALLE_OAXACA","nombre":"Plaza del Valle","nombreEN":null,"categoria":"zonaUrbana","aliases":"Plaza del Valle|Plaza del Valle Oaxaca|Plaza del Valle de Oaxaca|Centro Comercial Plaza del Valle|Plaza Valle|Plaza del Valle Universidad|Plaza del Valle Candiani|Plaza del Valle Oaxaca de Juárez|Plaza del Valle Sears|Plaza del Valle Cine","keywords":"plaza del valle|plaza|centro comercial|universidad|avenida universidad|candiani|sears|cine|compras|oaxaca","municipio":"Oaxaca de Juárez","localidad":"Oaxaca de Juárez","fuente":"YUUBUS","activo":true,"notas":null},"geometry":{"type":"Point","coordinates":[-96.712627621298097,17.039520146898784]}},
{"type":"Feature","properties":{"id":"PL_INSTITUTO_TECNOLOGICO_OAXACA","nombre":"Instituto Tecnológico de Oaxaca","nombreEN":null,"categoria":"institucion","aliases":"Instituto Tecnológico de Oaxaca|Tecnológico de Oaxaca|Tec de Oaxaca|Tec Oaxaca|ITO|ITO Oaxaca|Instituto Tecnológico|El Tecnológico|Tecnológico|TecNM Oaxaca","keywords":"tecnológico de oaxaca|tecnológico|tec|ito|tecnm|universidad|instituto|escuela|educación|oaxaca","municipio":"Oaxaca de Juárez","localidad":"Oaxaca de Juárez","fuente":"YUUBUS","activo":true,"notas":null},"geometry":{"type":"Point","coordinates":[-96.744648124563369,17.07791517942789]}},
{"type":"Feature","properties":{"id":"PL_ESTADIO_TECNOLOGICO_OAXACA","nombre":"Estadio Tecnológico de Oaxaca","nombreEN":null,"categoria":"cultura","aliases":"Estadio Tecnológico de Oaxaca|Estadio del Instituto Tecnológico de Oaxaca|Estadio ITO|Estadio del ITO|Estadio Tecnológico|Estadio de los Alebrijes|Estadio Alebrijes|Casa de los Alebrijes|Templo Alebrije|Estadio Alebrijes de Oaxaca","keywords":"estadio tecnológico|estadio ito|ito|tecnológico|alebrijes|alebrijes de oaxaca|futbol|estadio|tecnológico de oaxaca|oaxaca","municipio":"Oaxaca de Juárez","localidad":"Oaxaca de Juárez","fuente":"YUUBUS","activo":true,"notas":null},"geometry":{"type":"Point","coordinates":[-96.746479490766177,17.08042309303573]}},
{"type":"Feature","properties":{"id":"PL_CENTRO_CULTURAL_ALVARO_CARRILLO_OAXACA","nombre":"Centro Cultural Álvaro Carrillo","nombreEN":null,"categoria":"institucion","aliases":"Centro Cultural Álvaro Carrillo|Álvaro Carrillo|Teatro Álvaro Carrillo|Centro Cultural Carrillo|Centro Álvaro Carrillo|Álvaro Carrillo Oaxaca|Centro Cultural Álvaro Carrillo Oaxaca|Teatro Álvaro Carrillo Oaxaca|Centro Cultural de Oaxaca|Centro Cultural del Tecnológico","keywords":"álvaro carrillo|centro cultural|teatro|cultura|oaxaca|tecnológico|calzada madero|madero|eventos|centro de espectáculos","municipio":"Oaxaca de Juárez","localidad":"Oaxaca de Juárez","fuente":"YUUBUS","activo":true,"notas":null},"geometry":{"type":"Point","coordinates":[-96.742368471314734,17.079382411719223]}},
{"type":"Feature","properties":{"id":"PL_MONUMENTO_A_LA_MADRE_OAXACA","nombre":"Monumento a la Madre","nombreEN":null,"categoria":"cultura","aliases":"Monumento a la Madre|Monumento a la Madre Oaxaca|Monumento de la Madre|Parque Monumento a la Madre|Parque de la Madre|La Madre|Monumento La Madre|Parque La Madre|Monumento a la Madre de Oaxaca|La Madre Oaxaca","keywords":"monumento a la madre|madre|monumento|parque|oaxaca|madero|tecnológico|cerro del fortín|álvaro carrillo|oaxaca de juárez","municipio":"Oaxaca de Juárez","localidad":"Oaxaca de Juárez","fuente":"YUUBUS","activo":true,"notas":null},"geometry":{"type":"Point","coordinates":[-96.742451104871549,17.080375699705414]}},
{"type":"Feature","properties":{"id":"PL_COBAO_01_PUEBLO_NUEVO","nombre":"COBAO Plantel 01 Pueblo Nuevo","nombreEN":null,"categoria":"institucion","aliases":"COBAO 01|COBAO 1|COBAO Plantel 01|COBAO Pueblo Nuevo|COBAO 01 Pueblo Nuevo|Plantel 01 Pueblo Nuevo|Colegio de Bachilleres Plantel 01|Colegio de Bachilleres Pueblo Nuevo|COBAO de Pueblo Nuevo|COBAO Uno","keywords":"cobao|cobao 01|cobao 1|pueblo nuevo|bachilleres|colegio de bachilleres|preparatoria|bachillerato|escuela|oaxaca","municipio":"Oaxaca de Juárez","localidad":"Oaxaca de Juárez","fuente":"YUUBUS","activo":true,"notas":null},"geometry":{"type":"Point","coordinates":[-96.76017187113024,17.120019956973305]}},
{"type":"Feature","properties":{"id":"PL_MONUMENTO_BENITO_JUAREZ_FORTIN_OAXACA","nombre":"Monumento a Benito Juárez","nombreEN":null,"categoria":"cultura","aliases":"Monumento a Benito Juárez|Monumento a Juárez|Monumento de Juárez|Estatua de Benito Juárez|Estatua de Juárez|Juárez del Fortín|Monumento del Fortín|Benito Juárez del Fortín|Monumento a Juárez del Cerro del Fortín|Monumento Benito Juárez Oaxaca","keywords":"benito juárez|juárez|monumento|estatua|cerro del fortín|fortín|mirador|guelaguetza|benemérito|oaxaca","municipio":"Oaxaca de Juárez","localidad":"Oaxaca de Juárez","fuente":"yuubus","activo":true,"notas":null},"geometry":{"type":"Point","coordinates":[-96.764320075682278,17.122424641315124]}},
{"type":"Feature","properties":{"id":"PL_PLAZA_BELLA_OAXACA","nombre":"Plaza Bella","nombreEN":null,"categoria":"zonaUrbana","aliases":"Plaza Bella|Plaza Bella Oaxaca|Plaza Bella de Oaxaca|Centro Comercial Plaza Bella|Plaza Bella Montoya|Plaza Bella Monte Albán|Plaza Bella Atzompa|Plaza Bella Oaxaca de Juárez|La Plaza Bella|Plaza Bella Agencia Montoya","keywords":"plaza bella|plaza|centro comercial|montoya|agencia montoya|monte albán|carretera monte albán|atzompa|compras|oaxaca","municipio":"Oaxaca de Juárez","localidad":"Oaxaca de Juárez","fuente":"YUUBUS","activo":true,"notas":null},"geometry":{"type":"Point","coordinates":[-96.758217587511567,17.075316392424682]}},
{"type":"Feature","properties":{"id":"PL_MONTE_ALBAN_OAXACA","nombre":"Monte Albán","nombreEN":null,"categoria":"cultura","aliases":"Monte Albán|Zona Arqueológica de Monte Albán|Monte Alban|Montealbán|Zona Arqueológica Monte Albán|Ruinas de Monte Albán|Pirámides de Monte Albán|Monte Albán Oaxaca|Monte Alban Oaxaca|Zona Arqueológica de Oaxaca\n keywords: monte albán|monte alban|zona","keywords":"monte albán|monte alban|zona arqueológica|ruinas|pirámides|zapotecas|arqueología|xoxocotlán|oaxaca|patrimonio cultural\n categoria: monumento","municipio":"Santa Cruz Xoxocotlán","localidad":"Santa Cruz Xoxocotlán","fuente":"yuubus","activo":true,"notas":null},"geometry":{"type":"Point","coordinates":[-96.76829888144286,17.043300554397248]}},
{"type":"Feature","properties":{"id":"PL_PASEO_JUAREZ_EL_LLANO_OAXACA","nombre":"Paseo Juárez El Llano","nombreEN":null,"categoria":"zonaUrbana","aliases":"El Llano|Paseo Juárez El Llano|Parque El Llano|Parque Juárez El Llano|Paseo Juárez|Parque Juárez|Llano de Guadalupe|El Llano Oaxaca|Parque El Llano Oaxaca|Paseo Juárez Oaxaca","keywords":"el llano|llano|paseo juárez|parque juárez|parque|oaxaca|centro|centro histórico|benito juárez|viernes del llano","municipio":"Oaxaca de Juárez","localidad":"Oaxaca de Juárez","fuente":"yuubus","activo":true,"notas":null},"geometry":{"type":"Point","coordinates":[-96.71962978231862,17.068242610977784]}},
{"type":"Feature","properties":{"id":"PL_ANDADOR_TURISTICO_MACEDONIO_ALCALA_OAXACA","nombre":"Andador Turístico Macedonio Alcalá","nombreEN":null,"categoria":"cultura","aliases":"Andador Turístico|Andador Turístico de Oaxaca|Andador Macedonio Alcalá|Andador Alcalá|Macedonio Alcalá|Calle Macedonio Alcalá|Andador de Santo Domingo|Andador de Oaxaca|Andador del Centro|Andador Turístico Oaxaca","keywords":"andador turístico|andador|macedonio alcalá|alcalá|santo domingo|zócalo|centro|centro histórico|peatonal|oaxaca","municipio":"Oaxaca de Juárez","localidad":"Oaxaca de Juárez","fuente":"yuubus","activo":true,"notas":null},"geometry":{"type":"Point","coordinates":[-96.724200967389621,17.063638683280587]}},
{"type":"Feature","properties":{"id":"PL_MUSEO_DE_LAS_CULTURAS_OAXACA","nombre":"Museo de las Culturas de Oaxaca","nombreEN":null,"categoria":"cultura","aliases":"Museo de las Culturas de Oaxaca|Museo de las Culturas|Museo de Santo Domingo|Museo Santo Domingo|Museo Regional de Oaxaca|Museo Regional|Museo de las Culturas Santo Domingo|Museo del Ex Convento de Santo Domingo|Museo de las Culturas Oaxaca|Museo Santo Domingo Oaxaca","keywords":"museo de las culturas|museo|culturas|santo domingo|ex convento|museo regional|monte albán|tumba 7|centro histórico|oaxaca","municipio":"Oaxaca de Juárez","localidad":"Oaxaca de Juárez","fuente":"YUUBUS","activo":true,"notas":null},"geometry":{"type":"Point","coordinates":[-96.723151521218043,17.065920171994417]}},
{"type":"Feature","properties":{"id":"PL_EX_CONVENTO_SANTO_DOMINGO_OAXACA","nombre":"Ex Convento de Santo Domingo de Guzmán","nombreEN":null,"categoria":"cultura","aliases":"Ex Convento de Santo Domingo|Ex Convento de Santo Domingo de Guzmán|Exconvento de Santo Domingo|Exconvento de Santo Domingo de Guzmán|Convento de Santo Domingo|Convento Santo Domingo|Santo Domingo|Centro Cultural Santo Domingo|Ex Convento Santo Domingo Oaxaca|Conjunto de Santo Domingo","keywords":"ex convento|exconvento|santo domingo|convento|centro cultural|museo de las culturas|jardín etnobotánico|macedonio alcalá|centro histórico|oaxaca","municipio":"Oaxaca de Juárez","localidad":"Oaxaca de Juárez","fuente":"YUUBUS","activo":true,"notas":null},"geometry":{"type":"Point","coordinates":[-96.723145323701303,17.066273674350676]}},
{"type":"Feature","properties":{"id":"PL_MERCADO_LA_MERCED_OAXACA","nombre":"Mercado de la Merced","nombreEN":null,"categoria":"mercado","aliases":"Mercado de la Merced|Mercado La Merced|La Merced|Mercado Democracia|Mercado Democracia Oaxaca|Mercado de la Merced Oaxaca|Mercado La Merced Oaxaca|Mercado de la Merced Centro|Mercado de Morelos|Mercado de la Democracia","keywords":"mercado la merced|la merced|mercado democracia|democracia|mercado|morelos|nicolás del puerto|comida|gastronomía|oaxaca","municipio":"Oaxaca de Juárez","localidad":"Oaxaca de Juárez","fuente":"YUUBUS","activo":true,"notas":null},"geometry":{"type":"Point","coordinates":[-96.716086352110494,17.061764987968409]}},
{"type":"Feature","properties":{"id":"PL_MERCADO_SANCHEZ_PASCUAS_OAXACA","nombre":"Mercado Sánchez Pascuas","nombreEN":null,"categoria":"mercado","aliases":"Mercado Sánchez Pascuas|Sánchez Pascuas|Mercado Sanchez Pascuas|Mercado de Sánchez Pascuas|Mercado Sánchez Pascuas Oaxaca|Mercado del Carmen Alto|Mercado Carmen Alto|Mercado Sánchez|Sánchez Pascuas Oaxaca|Mercado Sánchez Pascuas Centro","keywords":"mercado sánchez pascuas|sánchez pascuas|mercado|carmen alto|porfirio díaz|tinoco y palacios|comida|gastronomía|centro histórico|oaxaca","municipio":"Oaxaca de Juárez","localidad":"Oaxaca de Juárez","fuente":"YUUBUS","activo":true,"notas":null},"geometry":{"type":"Point","coordinates":[-96.725766873291192,17.06868497703103]}},
{"type":"Feature","properties":{"id":"PL_MERCADO_IV_CENTENARIO_OAXACA","nombre":"Mercado IV Centenario","nombreEN":null,"categoria":"mercado","aliases":"Mercado IV Centenario|Mercado Cuarto Centenario|IV Centenario|Cuarto Centenario|Mercado 4 Centenario|Mercado 4to Centenario|Mercado La Rayita|La Rayita|Mercado IV Centenario Oaxaca|Mercado Cuarto Centenario Oaxaca","keywords":"mercado iv centenario|iv centenario|cuarto centenario|la rayita|mercado|marquesado|santa maría del marquesado|independencia|morelos|oaxaca","municipio":"Oaxaca de Juárez","localidad":"Oaxaca de Juárez","fuente":"YUUBUS","activo":true,"notas":null},"geometry":{"type":"Point","coordinates":[-96.731503062398389,17.063860365618769]}},
{"type":"Feature","properties":{"id":"PL_BARRIO_JALATLACO_OAXACA","nombre":"Barrio de Jalatlaco","nombreEN":null,"categoria":"zonaUrbana","aliases":"Barrio de Jalatlaco|Jalatlaco|Barrio Jalatlaco|Jalatlaco Oaxaca|Barrio Mágico de Jalatlaco|Barrio Mágico Jalatlaco|San Matías Jalatlaco|Jalatlaco Centro|Barrio de Jalatlaco Oaxaca|Jalatlaco Oaxaca de Juárez","keywords":"jalatlaco|barrio|barrio mágico|san matías|murales|arte urbano|calles empedradas|centro histórico|oaxaca|oaxaca de juárez","municipio":"Oaxaca de Juárez","localidad":"Oaxaca de Juárez","fuente":"YUUBUS","activo":true,"notas":null},"geometry":{"type":"Point","coordinates":[-96.715985513348173,17.067649167370927]}},
{"type":"Feature","properties":{"id":"PL_BARRIO_XOCHIMILCO_OAXACA","nombre":"Barrio de Xochimilco","nombreEN":null,"categoria":"zonaUrbana","aliases":"Barrio de Xochimilco|Xochimilco|Xochimilco Oaxaca|Barrio Xochimilco|Barrio de Xochimilco Oaxaca|Xochimilco de Oaxaca|Xochimilco Oaxaca de Juárez|Barrio Antiguo de Xochimilco|Barrio Xochimilco Oaxaca|Xochimilco Centro","keywords":"xochimilco|barrio xochimilco|barrio|oaxaca|arquitos|acueducto|los arquitos|murales|centro histórico|oaxaca de juárez","municipio":"Oaxaca de Juárez","localidad":"Oaxaca de Juárez","fuente":"YUUBUS","activo":true,"notas":null},"geometry":{"type":"Point","coordinates":[-96.724384181478769,17.073492677949524]}},
{"type":"Feature","properties":{"id":"PL_CERRO_DEL_FORTIN_OAXACA","nombre":"Cerro del Fortín","nombreEN":null,"categoria":"zonaUrbana","aliases":"Cerro del Fortín|Cerro del Fortin|El Fortín|Cerro Fortín|Cerro del Fortín Oaxaca|Parque Estatal Cerro del Fortín|Parque Cerro del Fortín|Mirador del Fortín|Mirador Cerro del Fortín|Cerro de la Guelaguetza","keywords":"cerro del fortín|fortín|cerro|mirador|parque estatal|guelaguetza|auditorio guelaguetza|lunes del cerro|mirador del fortín|oaxaca","municipio":"Oaxaca de Juárez","localidad":"Oaxaca de Juárez","fuente":"YUUBUS","activo":true,"notas":null},"geometry":{"type":"Point","coordinates":[-96.733130943467515,17.077011729845466]}},
{"type":"Feature","properties":{"id":"PL_ESCALERAS_DEL_FORTIN_OAXACA","nombre":"Escaleras del Fortín","nombreEN":null,"categoria":"zonaUrbana","aliases":"Escaleras del Fortín|Escaleras al Cerro del Fortín|Escaleras del Cerro del Fortín|Escaleras del Fortin|Escaleras del Cerro|Escaleras de la Guelaguetza|Subida al Fortín|Subida al Cerro del Fortín|Escaleras Fortín Oaxaca|Escaleras de la Guelaguetza Oaxaca","keywords":"escaleras del fortín|escaleras|fortín|cerro del fortín|subida al fortín|guelaguetza|auditorio guelaguetza|mirador|ejercicio|oaxaca","municipio":"Oaxaca de Juárez","localidad":"Oaxaca de Juárez","fuente":"YUUBUS","activo":true,"notas":null},"geometry":{"type":"Point","coordinates":[-96.728695587305552,17.068129057022606]}},
{"type":"Feature","properties":{"id":"PL_PLANETARIO_NUNDEHUI_OAXACA","nombre":"Planetario Nundehui","nombreEN":null,"categoria":"institucion","aliases":"Planetario Nundehui|Nundehui|Planetario de Oaxaca|Planetario del Fortín|Planetario Cerro del Fortín|Planetario Nundehui Oaxaca|Planetario del Cerro|Planetario Oaxaca|Nundehui Oaxaca|Planetario del Cerro del Fortín","keywords":"planetario nundehui|nundehui|planetario|astronomía|espacio|estrellas|cerro del fortín|fortín|guelaguetza|oaxaca","municipio":"Oaxaca de Juárez","localidad":"Oaxaca de Juárez","fuente":"YUUBUS","activo":true,"notas":null},"geometry":{"type":"Point","coordinates":[-96.732895437830621,17.070492939887139]}},
{"type":"Feature","properties":{"id":"PL_TEMPLO_SAN_MATIAS_JALATLACO_OAXACA","nombre":"Templo de San Matías Jalatlaco","nombreEN":null,"categoria":"cultura","aliases":"Templo de San Matías Jalatlaco|San Matías Jalatlaco|Templo San Matías|Iglesia de San Matías Jalatlaco|Iglesia de Jalatlaco|Templo de Jalatlaco|Iglesia San Matías|San Matías|Templo Jalatlaco|San Matías Jalatlaco Oaxaca","keywords":"san matías jalatlaco|san matías|jalatlaco|templo|iglesia|barrio jalatlaco|barrio mágico|hidalgo|aldama|oaxaca","municipio":"Oaxaca de Juárez","localidad":"Oaxaca de Juárez","fuente":"YUUBUS","activo":true,"notas":null},"geometry":{"type":"Point","coordinates":[-96.716224117743508,17.067634355942275]}},
{"type":"Feature","properties":{"id":"PL_TEMPLO_CARMEN_ALTO_OAXACA","nombre":"Templo del Carmen Alto","nombreEN":null,"categoria":"cultura","aliases":"Templo del Carmen Alto|Carmen Alto|Templo Carmen Alto|Iglesia del Carmen Alto|Iglesia Carmen Alto|Parroquia del Carmen Alto|Templo y Ex Convento del Carmen Alto|Ex Convento del Carmen Alto|El Carmen Alto|Carmen Alto Oaxaca","keywords":"carmen alto|templo|iglesia|parroquia|virgen del carmen|convento|guelaguetza|garcía vigil|centro histórico|oaxaca","municipio":"Oaxaca de Juárez","localidad":"Oaxaca de Juárez","fuente":"YUUBUS","activo":true,"notas":null},"geometry":{"type":"Point","coordinates":[-96.724106842603817,17.067218648032412]}},
{"type":"Feature","properties":{"id":"PL_TEMPLO_CARMEN_BAJO_OAXACA","nombre":"Templo del Carmen Bajo","nombreEN":null,"categoria":"cultura","aliases":"Templo del Carmen Bajo|Carmen Bajo|Templo Carmen Bajo|Iglesia del Carmen Bajo|Iglesia Carmen Bajo|El Carmen Bajo|Carmen Bajo Oaxaca|Templo del Carmen Bajo Oaxaca|Iglesia El Carmen Bajo|Carmen de Abajo","keywords":"carmen bajo|templo|iglesia|virgen del carmen|carmen|porfirio díaz|morelos|centro|centro histórico|oaxaca","municipio":"Oaxaca de Juárez","localidad":"Oaxaca de Juárez","fuente":"YUUBUS","activo":true,"notas":null},"geometry":{"type":"Point","coordinates":[-96.7260136119273,17.062936111458232]}},
{"type":"Feature","properties":{"id":"PL_TEMPLO_SAN_FELIPE_NERI_OAXACA","nombre":"Templo de San Felipe Neri","nombreEN":null,"categoria":"cultura","aliases":"Templo de San Felipe Neri|San Felipe Neri|Templo San Felipe Neri|Iglesia de San Felipe Neri|Iglesia San Felipe Neri|San Felipe|Templo de San Felipe|San Felipe Neri Oaxaca|Templo San Felipe Oaxaca|Iglesia de San Felipe Oaxaca","keywords":"san felipe neri|san felipe|templo|iglesia|benito juárez|margarita maza|independencia|centro|centro histórico|oaxaca","municipio":"Oaxaca de Juárez","localidad":"Oaxaca de Juárez","fuente":"YUUBUS","activo":true,"notas":null},"geometry":{"type":"Point","coordinates":[-96.727300629574685,17.062715909204378]}},
{"type":"Feature","properties":{"id":"PL_TEMPLO_SAN_AGUSTIN_OAXACA","nombre":"Templo de San Agustín","nombreEN":null,"categoria":"cultura","aliases":"Templo de San Agustín|San Agustín|Templo San Agustín|Iglesia de San Agustín|Iglesia San Agustín|Templo y Convento de San Agustín|Convento de San Agustín|San Agustín Oaxaca|Templo San Agustín Oaxaca|Iglesia de San Agustín Oaxaca","keywords":"san agustín|templo|iglesia|convento|agustinos|guerrero|armenta y lópez|centro|centro histórico|oaxaca","municipio":"Oaxaca de Juárez","localidad":"Oaxaca de Juárez","fuente":"YUUBUS","activo":true,"notas":null},"geometry":{"type":"Point","coordinates":[-96.723446807068797,17.059552077743049]}},
{"type":"Feature","properties":{"id":"PL_TEMPLO_SAN_FRANCISCO_DE_ASIS_OAXACA","nombre":"Templo de San Francisco de Asís","nombreEN":null,"categoria":"cultura","aliases":"Templo de San Francisco de Asís|San Francisco de Asís|Templo San Francisco|Iglesia de San Francisco de Asís|Iglesia de San Francisco|San Francisco|Templo y Convento de San Francisco de Asís|Ex Convento de San Francisco|San Francisco Oaxaca|Templo San Francisco Oaxaca","keywords":"san francisco de asís|san francisco|templo|iglesia|convento|franciscanos|doctor pardo|centro|centro histórico|oaxaca","municipio":"Oaxaca de Juárez","localidad":"Oaxaca de Juárez","fuente":"YUUBUS","activo":true,"notas":null},"geometry":{"type":"Point","coordinates":[-96.725581851592978,17.056125520649992]}},
{"type":"Feature","properties":{"id":"PL_TEMPLO_SAN_JUAN_DE_DIOS_OAXACA","nombre":"Templo de San Juan de Dios","nombreEN":null,"categoria":"cultura","aliases":"Templo de San Juan de Dios|San Juan de Dios|Templo San Juan de Dios|Iglesia de San Juan de Dios|Iglesia San Juan de Dios|Parroquia de San Juan de Dios|Templo San Juan|San Juan de Dios Oaxaca|Iglesia San Juan Oaxaca|Templo del Mercado 20 de Noviembre","keywords":"san juan de dios|san juan|templo|iglesia|parroquia|20 de noviembre|mercado 20 de noviembre|aldama|centro histórico|oaxaca","municipio":"Oaxaca de Juárez","localidad":"Oaxaca de Juárez","fuente":"YUUBUS","activo":true,"notas":null},"geometry":{"type":"Point","coordinates":[-96.727040333870676,17.058376983115288]}},
{"type":"Feature","properties":{"id":"PL_MUSEO_TEXTIL_OAXACA","nombre":"Museo Textil de Oaxaca","nombreEN":null,"categoria":"institucion","aliases":"Museo Textil de Oaxaca|Museo Textil|Museo Textil Oaxaca|MTO|MTO Oaxaca|Museo de Textiles de Oaxaca|Museo de Textiles|Museo Textil del Centro|Museo Textil Centro Histórico|Casa Antelo","keywords":"museo textil|textil|textiles|mto|artesanías|tejidos|huipiles|casa antelo|centro histórico|oaxaca","municipio":"Oaxaca de Juárez","localidad":"Oaxaca de Juárez","fuente":"YUUBUS","activo":true,"notas":null},"geometry":{"type":"Point","coordinates":[-96.722951522187572,17.060669398254738]}},
{"type":"Feature","properties":{"id":"PL_MUSEO_PINTORES_OAXAQUENOS_OAXACA","nombre":"Museo de los Pintores Oaxaqueños","nombreEN":null,"categoria":"institucion","aliases":"Museo de los Pintores Oaxaqueños|MUPO|MUPO Oaxaca|Museo de Pintores Oaxaqueños|Museo de los Pintores|Museo de Pintores|Museo de Arte Oaxaqueño|Museo de Pintores Oaxaca|Museo de los Pintores Oaxaca|El MUPO","keywords":"museo de los pintores|pintores oaxaqueños|mupo|museo|arte|pintura|artistas oaxaqueños|independencia|centro histórico|oaxaca","municipio":"Oaxaca de Juárez","localidad":"Oaxaca de Juárez","fuente":"YUUBUS","activo":true,"notas":null},"geometry":{"type":"Point","coordinates":[-96.725647441978609,17.062478426213456]}},
{"type":"Feature","properties":{"id":"PL_MUSEO_RUFINO_TAMAYO_OAXACA","nombre":"Museo Rufino Tamayo","nombreEN":null,"categoria":"institucion","aliases":"Museo Rufino Tamayo|Museo Rufino Tamayo Oaxaca|Museo Tamayo|Museo Tamayo Oaxaca|Museo de Arte Prehispánico Rufino Tamayo|Museo de Arte Prehispánico de México Rufino Tamayo|Museo de Arte Prehispánico|Museo Prehispánico Rufino Tamayo|Tamayo Oaxaca|Museo Prehispánico de Oaxaca","keywords":"rufino tamayo|tamayo|museo tamayo|museo|arte prehispánico|prehispánico|arqueología|morelos|centro histórico|oaxaca","municipio":"Oaxaca de Juárez","localidad":"Oaxaca de Juárez","fuente":"YUUBUS","activo":true,"notas":null},"geometry":{"type":"Point","coordinates":[-96.726897274525385,17.063454770673214]}},
{"type":"Feature","properties":{"id":"PL_MUSEO_FILATELIA_OAXACA","nombre":"Museo de Filatelia de Oaxaca","nombreEN":null,"categoria":"institucion","aliases":"Museo de Filatelia de Oaxaca|Museo de la Filatelia de Oaxaca|MUFI|MUFI Oaxaca|Museo de Filatelia|Museo de la Filatelia|Museo Filatelia Oaxaca|Museo Filatélico de Oaxaca|Museo de Estampillas de Oaxaca|El MUFI","keywords":"mufi|filatelia|museo de filatelia|estampillas|timbres postales|correo|museo|constitución|centro histórico|oaxaca","municipio":"Oaxaca de Juárez","localidad":"Oaxaca de Juárez","fuente":"YUUBUS","activo":true,"notas":null},"geometry":{"type":"Point","coordinates":[-96.721606661050401,17.065948067106874]}},
{"type":"Feature","properties":{"id":"PL_MUSEO_CASA_JUAREZ_OAXACA","nombre":"Museo Casa de Juárez","nombreEN":null,"categoria":"institucion","aliases":"Museo Casa de Juárez|Casa de Juárez|Museo Histórico Casa de Juárez|Museo de Sitio Casa Juárez|Casa Juárez|Casa de Benito Juárez|Museo Benito Juárez|Casa Juárez Oaxaca|Museo Casa Juárez Oaxaca|Casa de Juárez Oaxaca","keywords":"casa juárez|casa de juárez|benito juárez|museo casa juárez|museo|historia|garcía vigil|centro|centro histórico|oaxaca","municipio":"Oaxaca de Juárez","localidad":"Oaxaca de Juárez","fuente":"YUUBUS","activo":true,"notas":null},"geometry":{"type":"Point","coordinates":[-96.724554613189724,17.067367009453299]}},
{"type":"Feature","properties":{"id":"PL_IAGO_OAXACA","nombre":"Instituto de Artes Gráficas de Oaxaca","nombreEN":null,"categoria":"institucion","aliases":"Instituto de Artes Gráficas de Oaxaca|IAGO|IAGO Oaxaca|Instituto de Artes Gráficas|Artes Gráficas de Oaxaca|Instituto de Artes Gráficas Oaxaca|IAGO Alcalá|Biblioteca IAGO|Biblioteca del IAGO|Instituto Francisco Toledo","keywords":"iago|artes gráficas|arte|gráfica|francisco toledo|biblioteca|macedonio alcalá|santo domingo|centro histórico|oaxaca","municipio":"Oaxaca de Juárez","localidad":"Oaxaca de Juárez","fuente":"YUUBUS","activo":true,"notas":null},"geometry":{"type":"Point","coordinates":[-96.723759265205373,17.0664198147939]}}
]
}
